[{"OBJECT_NAME":"IOD-2","OBJECT_ID":"2025-135L","EPOCH":"2026-03-09T21:44:49.218144","MEAN_MOTION":15.19495389,"ECCENTRICITY":0.00054449,"INCLINATION":97.4569,"RA_OF_ASC_NODE":184.5694,"ARG_OF_PERICENTER":150.699,"MEAN_ANOMALY":209.4552,"EPHEMERIS_TYPE":0,"CLASSIFICATION_TYPE":"U","NORAD_CAT_ID":64538,"ELEMENT_SET_NO":999,"REV_AT_EPOCH":3974,"BSTAR":0.00029035696,"MEAN_MOTION_DOT":6.098e-5,"MEAN_MOTION_DDOT":0},{"OBJECT_NAME":"ZIYUAN 3-04 (ZY 3-04)","OBJECT_ID":"2025-300A","EPOCH":"2026-03-09T21:46:53.524416","MEAN_MOTION":15.21435869,"ECCENTRICITY":0.00046089,"INCLINATION":97.4787,"RA_OF_ASC_NODE":147.5221,"ARG_OF_PERICENTER":299.6571,"MEAN_ANOMALY":60.4205,"EPHEMERIS_TYPE":0,"CLASSIFICATION_TYPE":"U","NORAD_CAT_ID":67131,"ELEMENT_SET_NO":999,"REV_AT_EPOCH":1274,"BSTAR":0.00028410959,"MEAN_MOTION_DOT":6.313e-5,"MEAN_MOTION_DDOT":0}]
